{
  "fetched_at": "2026-06-21T13:45:31.010975+00:00",
  "satellites": {
    "57166": {
      "name": "Meteor M2-3",
      "tle_line1": "1 57166U 23091A   26172.17368441 -.00000011  00000+0  13952-4 0  9998",
      "tle_line2": "2 57166  98.6080 227.0705 0004569 145.3589 214.7888 14.24047125155087"
    },
    "59051": {
      "name": "Meteor M2-4",
      "tle_line1": "1 59051U 24039A   26172.19292928  .00000007  00000+0  22933-4 0  9997",
      "tle_line2": "2 59051  98.7012 131.4407 0007521 150.0091 210.1519 14.22429877119837"
    },
    "38771": {
      "name": "MetOp-B",
      "tle_line1": "1 38771U 12049A   26171.42762080  .00000060  00000+0  47478-4 0  9997",
      "tle_line2": "2 38771  98.6503 222.8621 0002032  10.6441 349.4779 14.21440128713725"
    },
    "43689": {
      "name": "MetOp-C",
      "tle_line1": "1 43689U 18087A   26171.44664144  .00000064  00000+0  49212-4 0  9995",
      "tle_line2": "2 43689  98.6643 230.9907 0001880 125.1991 234.9363 14.21512882395295"
    },
    "60543": {
      "name": "Arctic Weather Satellite",
      "tle_line1": "1 60543U 24149CD  26171.44476470  .00000538  00000+0  61650-4 0  9998",
      "tle_line2": "2 60543  97.6803 241.8173 0003665  98.0673 262.0961 14.89786475 99780"
    }
  }
}